NOAA 19
1 33591U 09005A   15031.49355013  .00000343  00000-0  21225-3 0  5536
2 33591  98.9750 341.1701 0013913 191.5594 304.4619 14.11862557308209
